{"type": "FeatureCollection", "features": [ {"type": "Feature", "properties": {"norad_id": 33917, "name": "COSMOS 2251 DEB", "group": "cosmos-2251-debris", "lat": 21.116629533209498, "lon": 122.75043890989053, "alt_km": 1237.531873720307, "timestamp": "2025-12-16T08:59:43.554611+00:00", "meta": {"OBJECT_NAME": "COSMOS 2251 DEB", "OBJECT_ID": "1993-036DW", "EPOCH": "2025-12-15T18:51:18.584928", "MEAN_MOTION": 13.69365396, "ECCENTRICITY": 0.03313121, "INCLINATION": 74.107, "RA_OF_ASC_NODE": 117.3992, "ARG_OF_PERICENTER": 217.6975, "MEAN_ANOMALY": 140.0512, "EPHEMERIS_TYPE": 0, "CLASSIFICATION_TYPE": "U", "NORAD_CAT_ID": 33917, "ELEMENT_SET_NO": 999, "REV_AT_EPOCH": 83775, "BSTAR": 0.0007436771, "MEAN_MOTION_DOT": 9.27e-06, "MEAN_MOTION_DDOT": 0}, "tle": {"line1": "1 33917U 93036DW  25349.78563177  .00000927  00000+0  74368-3 0  9999", "line2": "2 33917  74.1070 117.3992 0331312 217.6975 140.0512 13.69365396837750"}}, "geometry": {"type": "Point", "coordinates": [122.75043890989053, 21.116629533209498]}}, {"type": "Feature", "properties": {"norad_id": 33920, "name": "COSMOS 2251 DEB", "group": "cosmos-2251-debris", "lat": -5.517946192479771, "lon": 113.10335968873203, "alt_km": 711.8740162045669, "timestamp": "2025-12-16T08:59:43.554621+00:00", "meta": {"OBJECT_NAME": "COSMOS 2251 DEB", "OBJECT_ID": "1993-036DZ", "EPOCH": "2025-12-14T21:34:08.732352", "MEAN_MOTION": 14.58318284, "ECCENTRICITY": 0.00381438, "INCLINATION": 74.0616, "RA_OF_ASC_NODE": 294.325, "ARG_OF_PERICENTER": 300.7262, "MEAN_ANOMALY": 59.0147, "EPHEMERIS_TYPE": 0, "CLASSIFICATION_TYPE": "U", "NORAD_CAT_ID": 33920, "ELEMENT_SET_NO": 999, "REV_AT_EPOCH": 88146, "BSTAR": 0.0011755053, "MEAN_MOTION_DOT": 5.467e-05, "MEAN_MOTION_DDOT": 0}, "tle": {"line1": "1 33920U 93036DZ  25348.89871218  .00005467  00000+0  11755-2 0  9996", "line2": "2 33920  74.0616 294.3250 0038143 300.7262  59.0147 14.58318284881464"}}, "geometry": {"type": "Point", "coordinates": [113.10335968873203, -5.517946192479771]}}, {"type": "Feature", "properties": {"norad_id": 33922, "name": "COSMOS 2251 DEB", "group": "cosmos-2251-debris", "lat": -31.477345373604937, "lon": -28.965806981987498, "alt_km": 719.9302238498276, "timestamp": "2025-12-16T08:59:43.554631+00:00", "meta": {"OBJECT_NAME": "COSMOS 2251 DEB", "OBJECT_ID": "1993-036EB", "EPOCH": "2025-12-15T21:07:06.780576", "MEAN_MOTION": 14.49519761, "ECCENTRICITY": 0.00232227, "INCLINATION": 74.0466, "RA_OF_ASC_NODE": 141.8751, "ARG_OF_PERICENTER": 252.0966, "MEAN_ANOMALY": 259.5452, "EPHEMERIS_TYPE": 0, "CLASSIFICATION_TYPE": "U", "NORAD_CAT_ID": 33922, "ELEMENT_SET_NO": 999, "REV_AT_EPOCH": 88623, "BSTAR": 0.00040253856, "MEAN_MOTION_DOT": 1.521e-05, "MEAN_MOTION_DDOT": 0}, "tle": {"line1": "1 33922U 93036EB  25349.87993959  .00001521  00000+0  40254-3 0  9998", "line2": "2 33922  74.0466 141.8751 0023222 252.0966 259.5452 14.49519761886232"}}, "geometry": {"type": "Point", "coordinates": [-28.965806981987498, -31.477345373604937]}}, {"type": "Feature", "properties": {"norad_id": 33924, "name": "COSMOS 2251 DEB", "group": "cosmos-2251-debris", "lat": -68.83867475965131, "lon": -143.83645283901146, "alt_km": 787.1049760099204, "timestamp": "2025-12-16T08:59:43.554641+00:00", "meta": {"OBJECT_NAME": "COSMOS 2251 DEB", "OBJECT_ID": "1993-036ED", "EPOCH": "2025-12-15T22:40:38.835552", "MEAN_MOTION": 13.50230109, "ECCENTRICITY": 0.04039573, "INCLINATION": 73.9136, "RA_OF_ASC_NODE": 265.0494, "ARG_OF_PERICENTER": 299.9409, "MEAN_ANOMALY": 56.2156, "EPHEMERIS_TYPE": 0, "CLASSIFICATION_TYPE": "U", "NORAD_CAT_ID": 33924, "ELEMENT_SET_NO": 999, "REV_AT_EPOCH": 82782, "BSTAR": 0.00065874634, "MEAN_MOTION_DOT": 6.74e-06, "MEAN_MOTION_DDOT": 0}, "tle": {"line1": "1 33924U 93036ED  25349.94489393  .00000674  00000+0  65875-3 0  9994", "line2": "2 33924  73.9136 265.0494 0403957 299.9409  56.2156 13.50230109827828"}}, "geometry": {"type": "Point", "coordinates": [-143.83645283901146, -68.83867475965131]}}, {"type": "Feature", "properties": {"norad_id": 33928, "name": "COSMOS 2251 DEB", "group": "cosmos-2251-debris", "lat": 28.286440770675206, "lon": 54.648467146216625, "alt_km": 704.5155552507458, "timestamp": "2025-12-16T08:59:43.554651+00:00", "meta": {"OBJECT_NAME": "COSMOS 2251 DEB", "OBJECT_ID": "1993-036EH", "EPOCH": "2025-12-15T12:57:18.604224", "MEAN_MOTION": 14.4740953, "ECCENTRICITY": 0.00616044, "INCLINATION": 73.9259, "RA_OF_ASC_NODE": 47.2936, "ARG_OF_PERICENTER": 340.8097, "MEAN_ANOMALY": 19.074, "EPHEMERIS_TYPE": 0, "CLASSIFICATION_TYPE": "U", "NORAD_CAT_ID": 33928, "ELEMENT_SET_NO": 999, "REV_AT_EPOCH": 88685, "BSTAR": 0.00023272148, "MEAN_MOTION_DOT": 8.45e-06, "MEAN_MOTION_DDOT": 0}, "tle": {"line1": "1 33928U 93036EH  25349.53979866  .00000845  00000+0  23272-3 0  9997", "line2": "2 33928  73.9259  47.2936 0061604 340.8097  19.0740 14.47409530886854"}}, "geometry": {"type": "Point", "coordinates": [54.648467146216625, 28.286440770675206]}}, {"type": "Feature", "properties": {"norad_id": 33932, "name": "COSMOS 2251 DEB", "group": "cosmos-2251-debris", "lat": 50.687902654267155, "lon": -30.32218421567754, "alt_km": 735.3960036320223, "timestamp": "2025-12-16T08:59:43.554662+00:00", "meta": {"OBJECT_NAME": "COSMOS 2251 DEB", "OBJECT_ID": "1993-036EM", "EPOCH": "2025-12-15T22:44:10.974336", "MEAN_MOTION": 14.38767536, "ECCENTRICITY": 0.00354796, "INCLINATION": 74.0339, "RA_OF_ASC_NODE": 310.0013, "ARG_OF_PERICENTER": 25.4245, "MEAN_ANOMALY": 334.8645, "EPHEMERIS_TYPE": 0, "CLASSIFICATION_TYPE": "U", "NORAD_CAT_ID": 33932, "ELEMENT_SET_NO": 999, "REV_AT_EPOCH": 88044, "BSTAR": 0.00046525501, "MEAN_MOTION_DOT": 1.414e-05, "MEAN_MOTION_DDOT": 0}, "tle": {"line1": "1 33932U 93036EM  25349.94734924  .00001414  00000+0  46526-3 0  9991", "line2": "2 33932  74.0339 310.0013 0035479  25.4245 334.8645 14.38767536880443"}}, "geometry": {"type": "Point", "coordinates": [-30.32218421567754, 50.687902654267155]}}, {"type": "Feature", "properties": {"norad_id": 33933, "name": "COSMOS 2251 DEB", "group": "cosmos-2251-debris", "lat": -13.094995982808204, "lon": -122.68362083864794, "alt_km": 818.3914479546956, "timestamp": "2025-12-16T08:59:43.554672+00:00", "meta": {"OBJECT_NAME": "COSMOS 2251 DEB", "OBJECT_ID": "1993-036EN", "EPOCH": "2025-12-15T22:03:08.339328", "MEAN_MOTION": 14.33493817, "ECCENTRICITY": 0.00708269, "INCLINATION": 74.0894, "RA_OF_ASC_NODE": 54.3426, "ARG_OF_PERICENTER": 61.7969, "MEAN_ANOMALY": 299.0311, "EPHEMERIS_TYPE": 0, "CLASSIFICATION_TYPE": "U", "NORAD_CAT_ID": 33933, "ELEMENT_SET_NO": 999, "REV_AT_EPOCH": 87830, "BSTAR": 0.00024887955, "MEAN_MOTION_DOT": 6.82e-06, "MEAN_MOTION_DDOT": 0}, "tle": {"line1": "1 33933U 93036EN  25349.91884652  .00000682  00000+0  24888-3 0  9996", "line2": "2 33933  74.0894  54.3426 0070826  61.7969 299.0311 14.33493817878304"}}, "geometry": {"type": "Point", "coordinates": [-122.68362083864794, -13.094995982808204]}}, {"type": "Feature", "properties": {"norad_id": 33934, "name": "COSMOS 2251 DEB", "group": "cosmos-2251-debris", "lat": -68.36793712627065, "lon": 47.44889691129897, "alt_km": 698.6357672863796, "timestamp": "2025-12-16T08:59:43.554682+00:00", "meta": {"OBJECT_NAME": "COSMOS 2251 DEB", "OBJECT_ID": "1993-036EP", "EPOCH": "2025-12-15T13:35:38.655168", "MEAN_MOTION": 14.5913635, "ECCENTRICITY": 0.00155602, "INCLINATION": 74.0379, "RA_OF_ASC_NODE": 95.1856, "ARG_OF_PERICENTER": 219.03, "MEAN_ANOMALY": 140.9743, "EPHEMERIS_TYPE": 0, "CLASSIFICATION_TYPE": "U", "NORAD_CAT_ID": 33934, "ELEMENT_SET_NO": 999, "REV_AT_EPOCH": 88780, "BSTAR": 0.0006621295, "MEAN_MOTION_DOT": 3.095e-05, "MEAN_MOTION_DDOT": 0}, "tle": {"line1": "1 33934U 93036EP  25349.56641962  .00003095  00000+0  66213-3 0  9992", "line2": "2 33934  74.0379  95.1856 0015560 219.0300 140.9743 14.59136350887806"}}, "geometry": {"type": "Point", "coordinates": [47.44889691129897, -68.36793712627065]}}, {"type": "Feature", "properties": {"norad_id": 33936, "name": "COSMOS 2251 DEB", "group": "cosmos-2251-debris", "lat": -45.67611571641801, "lon": -132.39990018073848, "alt_km": 684.421657730245, "timestamp": "2025-12-16T08:59:43.554692+00:00", "meta": {"OBJECT_NAME": "COSMOS 2251 DEB", "OBJECT_ID": "1993-036ER", "EPOCH": "2025-12-15T20:26:46.234464", "MEAN_MOTION": 14.60292937, "ECCENTRICITY": 0.00273273, "INCLINATION": 74.019, "RA_OF_ASC_NODE": 31.5361, "ARG_OF_PERICENTER": 186.3242, "MEAN_ANOMALY": 173.7583, "EPHEMERIS_TYPE": 0, "CLASSIFICATION_TYPE": "U", "NORAD_CAT_ID": 33936, "ELEMENT_SET_NO": 999, "REV_AT_EPOCH": 88935, "BSTAR": 0.00046739073, "MEAN_MOTION_DOT": 2.239e-05, "MEAN_MOTION_DDOT": 0}, "tle": {"line1": "1 33936U 93036ER  25349.85192401  .00002239  00000+0  46739-3 0  9995", "line2": "2 33936  74.0190  31.5361 0027327 186.3242 173.7583 14.60292937889353"}}, "geometry": {"type": "Point", "coordinates": [-132.39990018073848, -45.67611571641801]}}, {"type": "Feature", "properties": {"norad_id": 33938, "name": "COSMOS 2251 DEB", "group": "cosmos-2251-debris", "lat": -73.30592374383696, "lon": 92.93339872834542, "alt_km": 731.5976011782595, "timestamp": "2025-12-16T08:59:43.554702+00:00", "meta": {"OBJECT_NAME": "COSMOS 2251 DEB", "OBJECT_ID": "1993-036ET", "EPOCH": "2025-12-15T22:21:44.513280", "MEAN_MOTION": 14.46803741, "ECCENTRICITY": 0.00168554, "INCLINATION": 74.0446, "RA_OF_ASC_NODE": 201.2167, "ARG_OF_PERICENTER": 283.0907, "MEAN_ANOMALY": 195.3545, "EPHEMERIS_TYPE": 0, "CLASSIFICATION_TYPE": "U", "NORAD_CAT_ID": 33938, "ELEMENT_SET_NO": 999, "REV_AT_EPOCH": 88446, "BSTAR": 0.00033206483, "MEAN_MOTION_DOT": 1.178e-05, "MEAN_MOTION_DDOT": 0}, "tle": {"line1": "1 33938U 93036ET  25349.93176520  .00001178  00000+0  33206-3 0  9996", "line2": "2 33938  74.0446 201.2167 0016855 283.0907 195.3545 14.46803741884466"}}, "geometry": {"type": "Point", "coordinates": [92.93339872834542, -73.30592374383696]}}]}